CCSDS_OMM_VERS = 2.0
CREATION_DATE  = 
ORIGINATOR     = 

OBJECT_NAME    = 2026-023F
OBJECT_ID      = 2026-023F
CENTER_NAME    = EARTH
REF_FRAME      = TEME
TIME_SYSTEM    = UTC
MEAN_ELEMENT_THEORY = SGP/SGP4

EPOCH          = 2026-02-06T19:57:21.808224
MEAN_MOTION    = 15.22365211
ECCENTRICITY   = .00208985
INCLINATION    = 96.6417
RA_OF_ASC_NODE = 116.8559
ARG_OF_PERICENTER = 224.4168
MEAN_ANOMALY   = 135.5395

EPHEMERIS_TYPE = 0
CLASSIFICATION_TYPE = U
NORAD_CAT_ID   = 67679
ELEMENT_SET_NO = 999
REV_AT_EPOCH   = 14
BSTAR          = .28069334E-3
MEAN_MOTION_DOT = .6457E-4
MEAN_MOTION_DDOT = 0

CCSDS_OMM_VERS = 2.0
CREATION_DATE  = 
ORIGINATOR     = 

OBJECT_NAME    = 2026-023G
OBJECT_ID      = 2026-023G
CENTER_NAME    = EARTH
REF_FRAME      = TEME
TIME_SYSTEM    = UTC
MEAN_ELEMENT_THEORY = SGP/SGP4

EPOCH          = 2026-02-07T19:37:07.334400
MEAN_MOTION    = 15.22204274
ECCENTRICITY   = .00196587
INCLINATION    = 96.6263
RA_OF_ASC_NODE = 117.7523
ARG_OF_PERICENTER = 223.6722
MEAN_ANOMALY   = 136.2962

EPHEMERIS_TYPE = 0
CLASSIFICATION_TYPE = U
NORAD_CAT_ID   = 67680
ELEMENT_SET_NO = 999
REV_AT_EPOCH   = 29
BSTAR          = .18946201E-3
MEAN_MOTION_DOT = .4315E-4
MEAN_MOTION_DDOT = 0

CCSDS_OMM_VERS = 2.0
CREATION_DATE  = 
ORIGINATOR     = 

OBJECT_NAME    = 2026-023H
OBJECT_ID      = 2026-023H
CENTER_NAME    = EARTH
REF_FRAME      = TEME
TIME_SYSTEM    = UTC
MEAN_ELEMENT_THEORY = SGP/SGP4

EPOCH          = 2026-02-06T19:57:24.636960
MEAN_MOTION    = 15.22318667
ECCENTRICITY   = .00215558
INCLINATION    = 96.6335
RA_OF_ASC_NODE = 116.8614
ARG_OF_PERICENTER = 226.9356
MEAN_ANOMALY   = 133.0079

EPHEMERIS_TYPE = 0
CLASSIFICATION_TYPE = U
NORAD_CAT_ID   = 67681
ELEMENT_SET_NO = 999
REV_AT_EPOCH   = 14
BSTAR          = .28069323E-3
MEAN_MOTION_DOT = .6451E-4
MEAN_MOTION_DDOT = 0

CCSDS_OMM_VERS = 2.0
CREATION_DATE  = 
ORIGINATOR     = 

OBJECT_NAME    = 2026-023J
OBJECT_ID      = 2026-023J
CENTER_NAME    = EARTH
REF_FRAME      = TEME
TIME_SYSTEM    = UTC
MEAN_ELEMENT_THEORY = SGP/SGP4

EPOCH          = 2026-02-06T19:57:21.610368
MEAN_MOTION    = 15.22391354
ECCENTRICITY   = .00211195
INCLINATION    = 96.6412
RA_OF_ASC_NODE = 116.8562
ARG_OF_PERICENTER = 228.0113
MEAN_ANOMALY   = 131.9327

EPHEMERIS_TYPE = 0
CLASSIFICATION_TYPE = U
NORAD_CAT_ID   = 67682
ELEMENT_SET_NO = 999
REV_AT_EPOCH   = 14
BSTAR          = .28055052E-3
MEAN_MOTION_DOT = .646E-4
MEAN_MOTION_DDOT = 0

CCSDS_OMM_VERS = 2.0
CREATION_DATE  = 
ORIGINATOR     = 

OBJECT_NAME    = ISS OBJECT XZ
OBJECT_ID      = 1998-067XZ
CENTER_NAME    = EARTH
REF_FRAME      = TEME
TIME_SYSTEM    = UTC
MEAN_ELEMENT_THEORY = SGP/SGP4

EPOCH          = 2026-02-10T14:18:50.040000
MEAN_MOTION    = 15.49625607
ECCENTRICITY   = .00108781
INCLINATION    = 51.6304
RA_OF_ASC_NODE = 206.2386
ARG_OF_PERICENTER = 99.3874
MEAN_ANOMALY   = 260.8345

EPHEMERIS_TYPE = 0
CLASSIFICATION_TYPE = U
NORAD_CAT_ID   = 67683
ELEMENT_SET_NO = 999
REV_AT_EPOCH   = 58
BSTAR          = .67758444E-3
MEAN_MOTION_DOT = .3797E-3
MEAN_MOTION_DDOT = 0

CCSDS_OMM_VERS = 2.0
CREATION_DATE  = 
ORIGINATOR     = 

OBJECT_NAME    = GXIBA-1
OBJECT_ID      = 1998-067YA
CENTER_NAME    = EARTH
REF_FRAME      = TEME
TIME_SYSTEM    = UTC
MEAN_ELEMENT_THEORY = SGP/SGP4

EPOCH          = 2026-02-10T14:16:29.907840
MEAN_MOTION    = 15.50204373
ECCENTRICITY   = .00127272
INCLINATION    = 51.6305
RA_OF_ASC_NODE = 206.2290
ARG_OF_PERICENTER = 94.0869
MEAN_ANOMALY   = 266.1575

EPHEMERIS_TYPE = 0
CLASSIFICATION_TYPE = U
NORAD_CAT_ID   = 67684
ELEMENT_SET_NO = 999
REV_AT_EPOCH   = 58
BSTAR          = .12012594E-2
MEAN_MOTION_DOT = .69413E-3
MEAN_MOTION_DDOT = 0

CCSDS_OMM_VERS = 2.0
CREATION_DATE  = 
ORIGINATOR     = 

OBJECT_NAME    = CORAL
OBJECT_ID      = 1998-067YB
CENTER_NAME    = EARTH
REF_FRAME      = TEME
TIME_SYSTEM    = UTC
MEAN_ELEMENT_THEORY = SGP/SGP4

EPOCH          = 2026-02-10T14:18:19.114848
MEAN_MOTION    = 15.49740764
ECCENTRICITY   = .00127927
INCLINATION    = 51.6305
RA_OF_ASC_NODE = 206.2367
ARG_OF_PERICENTER = 94.6356
MEAN_ANOMALY   = 265.6094

EPHEMERIS_TYPE = 0
CLASSIFICATION_TYPE = U
NORAD_CAT_ID   = 67685
ELEMENT_SET_NO = 999
REV_AT_EPOCH   = 58
BSTAR          = .75298032E-3
MEAN_MOTION_DOT = .42481E-3
MEAN_MOTION_DDOT = 0

CCSDS_OMM_VERS = 2.0
CREATION_DATE  = 
ORIGINATOR     = 

OBJECT_NAME    = ISS OBJECT YC
OBJECT_ID      = 1998-067YC
CENTER_NAME    = EARTH
REF_FRAME      = TEME
TIME_SYSTEM    = UTC
MEAN_ELEMENT_THEORY = SGP/SGP4

EPOCH          = 2026-02-10T14:17:57.704928
MEAN_MOTION    = 15.49849773
ECCENTRICITY   = .00077517
INCLINATION    = 51.6309
RA_OF_ASC_NODE = 206.2355
ARG_OF_PERICENTER = 71.5738
MEAN_ANOMALY   = 288.6093

EPHEMERIS_TYPE = 0
CLASSIFICATION_TYPE = U
NORAD_CAT_ID   = 67686
ELEMENT_SET_NO = 999
REV_AT_EPOCH   = 58
BSTAR          = .90424331E-3
MEAN_MOTION_DOT = .51261E-3
MEAN_MOTION_DDOT = 0

CCSDS_OMM_VERS = 2.0
CREATION_DATE  = 
ORIGINATOR     = 

OBJECT_NAME    = LEOPARD
OBJECT_ID      = 1998-067YD
CENTER_NAME    = EARTH
REF_FRAME      = TEME
TIME_SYSTEM    = UTC
MEAN_ELEMENT_THEORY = SGP/SGP4

EPOCH          = 2026-02-10T14:18:31.805280
MEAN_MOTION    = 15.49693548
ECCENTRICITY   = .00078523
INCLINATION    = 51.6309
RA_OF_ASC_NODE = 206.2375
ARG_OF_PERICENTER = 73.1400
MEAN_ANOMALY   = 287.0449

EPHEMERIS_TYPE = 0
CLASSIFICATION_TYPE = U
NORAD_CAT_ID   = 67687
ELEMENT_SET_NO = 999
REV_AT_EPOCH   = 50
BSTAR          = .71846719E-3
MEAN_MOTION_DOT = .40355E-3
MEAN_MOTION_DDOT = 0

CCSDS_OMM_VERS = 2.0
CREATION_DATE  = 
ORIGINATOR     = 

OBJECT_NAME    = ISS OBJECT YE
OBJECT_ID      = 1998-067YE
CENTER_NAME    = EARTH
REF_FRAME      = TEME
TIME_SYSTEM    = UTC
MEAN_ELEMENT_THEORY = SGP/SGP4

EPOCH          = 2026-02-10T12:45:11.975040
MEAN_MOTION    = 15.49802515
ECCENTRICITY   = .0007705
INCLINATION    = 51.6310
RA_OF_ASC_NODE = 206.5553
ARG_OF_PERICENTER = 71.6104
MEAN_ANOMALY   = 288.5722

EPHEMERIS_TYPE = 0
CLASSIFICATION_TYPE = U
NORAD_CAT_ID   = 67688
ELEMENT_SET_NO = 999
REV_AT_EPOCH   = 49
BSTAR          = .82575632E-3
MEAN_MOTION_DOT = .46665E-3
MEAN_MOTION_DDOT = 0

CCSDS_OMM_VERS = 2.0
CREATION_DATE  = 
ORIGINATOR     = 

OBJECT_NAME    = PRC TEST SPACECRAFT 4
OBJECT_ID      = 2026-024A
CENTER_NAME    = EARTH
REF_FRAME      = TEME
TIME_SYSTEM    = UTC
MEAN_ELEMENT_THEORY = SGP/SGP4

EPOCH          = 2026-02-10T17:34:52.123008
MEAN_MOTION    = 15.31908800
ECCENTRICITY   = .0177643
INCLINATION    = 49.9879
RA_OF_ASC_NODE = 149.7077
ARG_OF_PERICENTER = 163.1236
MEAN_ANOMALY   = 197.5736

EPHEMERIS_TYPE = 0
CLASSIFICATION_TYPE = U
NORAD_CAT_ID   = 67689
ELEMENT_SET_NO = 999
REV_AT_EPOCH   = 55
BSTAR          = .12912E-3
MEAN_MOTION_DOT = .618E-4
MEAN_MOTION_DDOT = 0

CCSDS_OMM_VERS = 2.0
CREATION_DATE  = 
ORIGINATOR     = 

OBJECT_NAME    = CZ-2F R/B
OBJECT_ID      = 2026-024B
CENTER_NAME    = EARTH
REF_FRAME      = TEME
TIME_SYSTEM    = UTC
MEAN_ELEMENT_THEORY = SGP/SGP4

EPOCH          = 2026-02-09T18:04:37.386336
MEAN_MOTION    = 15.33080913
ECCENTRICITY   = .017874
INCLINATION    = 49.9890
RA_OF_ASC_NODE = 154.5891
ARG_OF_PERICENTER = 159.3290
MEAN_ANOMALY   = 201.5018

EPHEMERIS_TYPE = 0
CLASSIFICATION_TYPE = U
NORAD_CAT_ID   = 67690
ELEMENT_SET_NO = 999
REV_AT_EPOCH   = 40
BSTAR          = .19082E-3
MEAN_MOTION_DOT = .9918E-4
MEAN_MOTION_DDOT = 0

