2026-023F               
1 67679U 26023F   26037.83150241  .00006457  00000+0  28069-3 0  9999
2 67679  96.6417 116.8559 0020898 224.4168 135.5395 15.22365211   143
2026-023G               
1 67680U 26023G   26038.81744600  .00004315  00000+0  18946-3 0  9992
2 67680  96.6263 117.7523 0019658 223.6722 136.2962 15.22204274   299
2026-023H               
1 67681U 26023H   26037.83153515  .00006451  00000+0  28069-3 0  9993
2 67681  96.6335 116.8614 0021555 226.9356 133.0079 15.22318667   149
2026-023J               
1 67682U 26023J   26037.83150012  .00006460  00000+0  28055-3 0  9998
2 67682  96.6412 116.8562 0021119 228.0113 131.9327 15.22391354   145
ISS OBJECT XZ           
1 67683U 98067XZ  26041.59641250  .00037970  00000+0  67758-3 0  9996
2 67683  51.6304 206.2386 0010878  99.3874 260.8345 15.49625607   588
GXIBA-1                 
1 67684U 98067YA  26041.59479060  .00069413  00000+0  12013-2 0  9995
2 67684  51.6305 206.2290 0012727  94.0869 266.1575 15.50204373   584
CORAL                   
1 67685U 98067YB  26041.59605457  .00042481  00000+0  75298-3 0  9998
2 67685  51.6305 206.2367 0012792  94.6356 265.6094 15.49740764   586
ISS OBJECT YC           
1 67686U 98067YC  26041.59580677  .00051261  00000+0  90424-3 0  9999
2 67686  51.6309 206.2355 0007751  71.5738 288.6093 15.49849773   589
LEOPARD                 
1 67687U 98067YD  26041.59620145  .00040355  00000+0  71847-3 0  9995
2 67687  51.6309 206.2375 0007852  73.1400 287.0449 15.49693548   505
ISS OBJECT YE           
1 67688U 98067YE  26041.53138860  .00046665  00000+0  82576-3 0  9999
2 67688  51.6310 206.5553 0007705  71.6104 288.5722 15.49802515   494
PRC TEST SPACECRAFT 4   
1 67689U 26024A   26041.73254772  .00006180  00000+0  12912-3 0  9992
2 67689  49.9879 149.7077 0177643 163.1236 197.5736 15.31908800   552
CZ-2F R/B               
1 67690U 26024B   26040.75321049  .00009918  00000+0  19082-3 0  9994
2 67690  49.9890 154.5891 0178740 159.3290 201.5018 15.33080913   402
